[{"OBJECT_NAME":"NETSAT-1","OBJECT_ID":"2020-068W","EPOCH":"2026-03-09T22:42:38.711232","MEAN_MOTION":15.32042482,"ECCENTRICITY":0.00057337,"INCLINATION":97.8751,"RA_OF_ASC_NODE":63.2583,"ARG_OF_PERICENTER":18.5877,"MEAN_ANOMALY":341.5572,"EPHEMERIS_TYPE":0,"CLASSIFICATION_TYPE":"U","NORAD_CAT_ID":46506,"ELEMENT_SET_NO":999,"REV_AT_EPOCH":30009,"BSTAR":0.00059222329,"MEAN_MOTION_DOT":0.00018269,"MEAN_MOTION_DDOT":0},{"OBJECT_NAME":"STARLINK-32101","OBJECT_ID":"2024-144Y","EPOCH":"2026-03-09T16:37:27.229728","MEAN_MOTION":15.30192398,"ECCENTRICITY":0.00011867,"INCLINATION":53.1604,"RA_OF_ASC_NODE":216.8305,"ARG_OF_PERICENTER":101.4047,"MEAN_ANOMALY":258.7088,"EPHEMERIS_TYPE":0,"CLASSIFICATION_TYPE":"U","NORAD_CAT_ID":60447,"ELEMENT_SET_NO":999,"REV_AT_EPOCH":8931,"BSTAR":5.3529537e-5,"MEAN_MOTION_DOT":1.226e-5,"MEAN_MOTION_DDOT":0}]
